{"type": "FeatureCollection", "features": [ {"type": "Feature", "properties": {"norad_id": 66531, "name": "STARLINK-35960", "group": "last-30-days", "lat": -29.83258351002243, "lon": -48.03199820856511, "alt_km": 366.61813132416864, "timestamp": "2025-12-05T22:40:47.342028+00:00", "meta": {"OBJECT_NAME": "STARLINK-35960", "OBJECT_ID": "2025-265R", "EPOCH": "2025-12-05T06:00:02.000160", "MEAN_MOTION": 15.70699104, "ECCENTRICITY": 0.00014744, "INCLINATION": 43.0002, "RA_OF_ASC_NODE": 98.1678, "ARG_OF_PERICENTER": 266.3877, "MEAN_ANOMALY": 349.4727, "EPHEMERIS_TYPE": 0, "CLASSIFICATION_TYPE": "U", "NORAD_CAT_ID": 66531, "ELEMENT_SET_NO": 999, "REV_AT_EPOCH": 379, "BSTAR": -0.016612552, "MEAN_MOTION_DOT": -0.01846737, "MEAN_MOTION_DDOT": 0}, "tle": {"line1": "1 66531U 25265R   25339.25002315 -.01846737  00000+0 -16613-1 0  9996", "line2": "2 66531  43.0002  98.1678 0001474 266.3877 349.4727 15.70699104  3793"}}, "geometry": {"type": "Point", "coordinates": [-48.03199820856511, -29.83258351002243]}}, {"type": "Feature", "properties": {"norad_id": 66532, "name": "STARLINK-35914", "group": "last-30-days", "lat": -30.84793025058975, "lon": -46.15559244589107, "alt_km": 366.7684964164473, "timestamp": "2025-12-05T22:40:47.342038+00:00", "meta": {"OBJECT_NAME": "STARLINK-35914", "OBJECT_ID": "2025-265S", "EPOCH": "2025-12-05T06:00:02.000160", "MEAN_MOTION": 15.7069838, "ECCENTRICITY": 0.00013039, "INCLINATION": 43, "RA_OF_ASC_NODE": 98.1634, "ARG_OF_PERICENTER": 267.3493, "MEAN_ANOMALY": 350.4311, "EPHEMERIS_TYPE": 0, "CLASSIFICATION_TYPE": "U", "NORAD_CAT_ID": 66532, "ELEMENT_SET_NO": 999, "REV_AT_EPOCH": 379, "BSTAR": -0.016629449, "MEAN_MOTION_DOT": -0.01885045, "MEAN_MOTION_DDOT": 0}, "tle": {"line1": "1 66532U 25265S   25339.25002315 -.01885045  00000+0 -16629-1 0  9999", "line2": "2 66532  43.0000  98.1634 0001303 267.3493 350.4311 15.70698380  3796"}}, "geometry": {"type": "Point", "coordinates": [-46.15559244589107, -30.84793025058975]}}, {"type": "Feature", "properties": {"norad_id": 66533, "name": "STARLINK-35707", "group": "last-30-days", "lat": -31.83508259264561, "lon": -44.24113251279998, "alt_km": 366.69759036547384, "timestamp": "2025-12-05T22:40:47.342053+00:00", "meta": {"OBJECT_NAME": "STARLINK-35707", "OBJECT_ID": "2025-265T", "EPOCH": "2025-12-05T06:00:02.000160", "MEAN_MOTION": 15.70705234, "ECCENTRICITY": 0.00014769, "INCLINATION": 43, "RA_OF_ASC_NODE": 98.1586, "ARG_OF_PERICENTER": 266.6248, "MEAN_ANOMALY": 353.0666, "EPHEMERIS_TYPE": 0, "CLASSIFICATION_TYPE": "U", "NORAD_CAT_ID": 66533, "ELEMENT_SET_NO": 999, "REV_AT_EPOCH": 379, "BSTAR": -0.016681589, "MEAN_MOTION_DOT": -0.0189091, "MEAN_MOTION_DDOT": 0}, "tle": {"line1": "1 66533U 25265T   25339.25002315 -.01890910  00000+0 -16682-1 0  9996", "line2": "2 66533  43.0000  98.1586 0001476 266.6248 353.0666 15.70705234  3793"}}, "geometry": {"type": "Point", "coordinates": [-44.24113251279998, -31.83508259264561]}}, {"type": "Feature", "properties": {"norad_id": 66534, "name": "STARLINK-35976", "group": "last-30-days", "lat": -32.7979739897589, "lon": -42.2754329369626, "alt_km": 366.85498486341567, "timestamp": "2025-12-05T22:40:47.342064+00:00", "meta": {"OBJECT_NAME": "STARLINK-35976", "OBJECT_ID": "2025-265U", "EPOCH": "2025-12-05T06:00:02.000160", "MEAN_MOTION": 15.7066097, "ECCENTRICITY": 0.00015106, "INCLINATION": 43.0004, "RA_OF_ASC_NODE": 98.154, "ARG_OF_PERICENTER": 276.3039, "MEAN_ANOMALY": 345.3375, "EPHEMERIS_TYPE": 0, "CLASSIFICATION_TYPE": "U", "NORAD_CAT_ID": 66534, "ELEMENT_SET_NO": 999, "REV_AT_EPOCH": 379, "BSTAR": -0.016275056, "MEAN_MOTION_DOT": -0.01811557, "MEAN_MOTION_DDOT": 0}, "tle": {"line1": "1 66534U 25265U   25339.25002315 -.01811557  00000+0 -16275-1 0  9995", "line2": "2 66534  43.0004  98.1540 0001510 276.3039 345.3375 15.70660970  3791"}}, "geometry": {"type": "Point", "coordinates": [-42.2754329369626, -32.7979739897589]}}, {"type": "Feature", "properties": {"norad_id": 66535, "name": "STARLINK-35514", "group": "last-30-days", "lat": -33.72062537963786, "lon": -40.2855184245155, "alt_km": 366.80536355462846, "timestamp": "2025-12-05T22:40:47.342076+00:00", "meta": {"OBJECT_NAME": "STARLINK-35514", "OBJECT_ID": "2025-265V", "EPOCH": "2025-12-05T06:00:02.000160", "MEAN_MOTION": 15.70700429, "ECCENTRICITY": 0.0001487, "INCLINATION": 43.0002, "RA_OF_ASC_NODE": 98.1495, "ARG_OF_PERICENTER": 270.0189, "MEAN_ANOMALY": 353.5103, "EPHEMERIS_TYPE": 0, "CLASSIFICATION_TYPE": "U", "NORAD_CAT_ID": 66535, "ELEMENT_SET_NO": 999, "REV_AT_EPOCH": 379, "BSTAR": -0.016644298, "MEAN_MOTION_DOT": -0.0188682, "MEAN_MOTION_DDOT": 0}, "tle": {"line1": "1 66535U 25265V   25339.25002315 -.01886820  00000+0 -16644-1 0  9991", "line2": "2 66535  43.0002  98.1495 0001487 270.0189 353.5103 15.70700429  3793"}}, "geometry": {"type": "Point", "coordinates": [-40.2855184245155, -33.72062537963786]}}, {"type": "Feature", "properties": {"norad_id": 66536, "name": "STARLINK-35640", "group": "last-30-days", "lat": -34.61480751918001, "lon": -38.243536583279386, "alt_km": 366.7926135132311, "timestamp": "2025-12-05T22:40:47.342087+00:00", "meta": {"OBJECT_NAME": "STARLINK-35640", "OBJECT_ID": "2025-265W", "EPOCH": "2025-12-05T06:00:02.000160", "MEAN_MOTION": 15.70705964, "ECCENTRICITY": 0.00014746, "INCLINATION": 43.0001, "RA_OF_ASC_NODE": 98.1446, "ARG_OF_PERICENTER": 267.5366, "MEAN_ANOMALY": 357.9062, "EPHEMERIS_TYPE": 0, "CLASSIFICATION_TYPE": "U", "NORAD_CAT_ID": 66536, "ELEMENT_SET_NO": 999, "REV_AT_EPOCH": 377, "BSTAR": -0.016697459, "MEAN_MOTION_DOT": -0.01892557, "MEAN_MOTION_DDOT": 0}, "tle": {"line1": "1 66536U 25265W   25339.25002315 -.01892557  00000+0 -16697-1 0  9994", "line2": "2 66536  43.0001  98.1446 0001474 267.5366 357.9062 15.70705964  3772"}}, "geometry": {"type": "Point", "coordinates": [-38.243536583279386, -34.61480751918001]}}, {"type": "Feature", "properties": {"norad_id": 66537, "name": "STARLINK-35582", "group": "last-30-days", "lat": -35.475975876633676, "lon": -36.15409594488668, "alt_km": 366.8439106285341, "timestamp": "2025-12-05T22:40:47.342096+00:00", "meta": {"OBJECT_NAME": "STARLINK-35582", "OBJECT_ID": "2025-265X", "EPOCH": "2025-12-05T06:00:02.000160", "MEAN_MOTION": 15.70701697, "ECCENTRICITY": 0.0001428, "INCLINATION": 43.0004, "RA_OF_ASC_NODE": 98.1396, "ARG_OF_PERICENTER": 268.7517, "MEAN_ANOMALY": 358.6091, "EPHEMERIS_TYPE": 0, "CLASSIFICATION_TYPE": "U", "NORAD_CAT_ID": 66537, "ELEMENT_SET_NO": 999, "REV_AT_EPOCH": 379, "BSTAR": -0.016633609, "MEAN_MOTION_DOT": -0.01885789, "MEAN_MOTION_DDOT": 0}, "tle": {"line1": "1 66537U 25265X   25339.25002315 -.01885789  00000+0 -16634-1 0  9995", "line2": "2 66537  43.0004  98.1396 0001428 268.7517 358.6091 15.70701697  3791"}}, "geometry": {"type": "Point", "coordinates": [-36.15409594488668, -35.475975876633676]}}, {"type": "Feature", "properties": {"norad_id": 66538, "name": "STARLINK-35577", "group": "last-30-days", "lat": -36.298732718793204, "lon": -34.02347159711267, "alt_km": 366.8668337888939, "timestamp": "2025-12-05T22:40:47.342106+00:00", "meta": {"OBJECT_NAME": "STARLINK-35577", "OBJECT_ID": "2025-265Y", "EPOCH": "2025-12-05T06:00:02.000160", "MEAN_MOTION": 15.70700409, "ECCENTRICITY": 0.00014039, "INCLINATION": 43.0004, "RA_OF_ASC_NODE": 98.1346, "ARG_OF_PERICENTER": 268.367, "MEAN_ANOMALY": 0.9118, "EPHEMERIS_TYPE": 0, "CLASSIFICATION_TYPE": "U", "NORAD_CAT_ID": 66538, "ELEMENT_SET_NO": 999, "REV_AT_EPOCH": 379, "BSTAR": -0.016622342, "MEAN_MOTION_DOT": -0.01884545, "MEAN_MOTION_DDOT": 0}, "tle": {"line1": "1 66538U 25265Y   25339.25002315 -.01884545  00000+0 -16622-1 0  9992", "line2": "2 66538  43.0004  98.1346 0001403 268.3670   0.9118 15.70700409  3793"}}, "geometry": {"type": "Point", "coordinates": [-34.02347159711267, -36.298732718793204]}}, {"type": "Feature", "properties": {"norad_id": 66539, "name": "STARLINK-35697", "group": "last-30-days", "lat": -37.08144450910313, "lon": -31.8523620433758, "alt_km": 366.9390619270898, "timestamp": "2025-12-05T22:40:47.342116+00:00", "meta": {"OBJECT_NAME": "STARLINK-35697", "OBJECT_ID": "2025-265Z", "EPOCH": "2025-12-05T06:00:02.000160", "MEAN_MOTION": 15.70702166, "ECCENTRICITY": 0.00013362, "INCLINATION": 43.0004, "RA_OF_ASC_NODE": 98.1293, "ARG_OF_PERICENTER": 268.8069, "MEAN_ANOMALY": 2.3885, "EPHEMERIS_TYPE": 0, "CLASSIFICATION_TYPE": "U", "NORAD_CAT_ID": 66539, "ELEMENT_SET_NO": 999, "REV_AT_EPOCH": 379, "BSTAR": -0.016653094, "MEAN_MOTION_DOT": -0.01887719, "MEAN_MOTION_DDOT": 0}, "tle": {"line1": "1 66539U 25265Z   25339.25002315 -.01887719  00000+0 -16653-1 0  9993", "line2": "2 66539  43.0004  98.1293 0001336 268.8069   2.3885 15.70702166  3796"}}, "geometry": {"type": "Point", "coordinates": [-31.8523620433758, -37.08144450910313]}}, {"type": "Feature", "properties": {"norad_id": 66540, "name": "STARLINK-35818", "group": "last-30-days", "lat": -37.82417036237853, "lon": -29.633321936076214, "alt_km": 366.87809270489925, "timestamp": "2025-12-05T22:40:47.342126+00:00", "meta": {"OBJECT_NAME": "STARLINK-35818", "OBJECT_ID": "2025-265AA", "EPOCH": "2025-12-05T06:00:02.000160", "MEAN_MOTION": 15.70703232, "ECCENTRICITY": 0.00014901, "INCLINATION": 43.0001, "RA_OF_ASC_NODE": 98.125, "ARG_OF_PERICENTER": 270.4346, "MEAN_ANOMALY": 2.6754, "EPHEMERIS_TYPE": 0, "CLASSIFICATION_TYPE": "U", "NORAD_CAT_ID": 66540, "ELEMENT_SET_NO": 999, "REV_AT_EPOCH": 379, "BSTAR": -0.016645665, "MEAN_MOTION_DOT": -0.01887159, "MEAN_MOTION_DDOT": 0}, "tle": {"line1": "1 66540U 25265AA  25339.25002315 -.01887159  00000+0 -16646-1 0  9995", "line2": "2 66540  43.0001  98.1250 0001490 270.4346   2.6754 15.70703232  3799"}}, "geometry": {"type": "Point", "coordinates": [-29.633321936076214, -37.82417036237853]}}]}